[{"OBJECT_NAME":"STARLINK-5311","OBJECT_ID":"2023-010V","EPOCH":"2026-03-09T23:37:12.408096","MEAN_MOTION":14.98345855,"ECCENTRICITY":0.00028196,"INCLINATION":70.0071,"RA_OF_ASC_NODE":23.7081,"ARG_OF_PERICENTER":254.1785,"MEAN_ANOMALY":105.9063,"EPHEMERIS_TYPE":0,"CLASSIFICATION_TYPE":"U","NORAD_CAT_ID":55288,"ELEMENT_SET_NO":999,"REV_AT_EPOCH":17331,"BSTAR":0.00096810895,"MEAN_MOTION_DOT":0.00011482,"MEAN_MOTION_DDOT":0},{"OBJECT_NAME":"FREGAT DEB","OBJECT_ID":"2011-037CH","EPOCH":"2026-03-09T16:32:56.542848","MEAN_MOTION":13.49190097,"ECCENTRICITY":0.09581895,"INCLINATION":51.3975,"RA_OF_ASC_NODE":253.381,"ARG_OF_PERICENTER":179.7939,"MEAN_ANOMALY":180.3545,"EPHEMERIS_TYPE":0,"CLASSIFICATION_TYPE":"U","NORAD_CAT_ID":45847,"ELEMENT_SET_NO":999,"REV_AT_EPOCH":24863,"BSTAR":0.010446039,"MEAN_MOTION_DOT":0.00171007,"MEAN_MOTION_DDOT":0}]
